COSMOS 2425 (716)       
1 29670U 06062A   18106.30038127  .00000020  00000-0  10000-3 0  9994
2 29670  65.3095 294.6272 0021932 351.9122 122.1463  2.13104938 87999
COSMOS 2426 (717)       
1 29671U 06062B   18106.37183353  .00000020  00000-0  10000-3 0  9994
2 29671  65.3273 294.7216 0017260 157.4909 227.5869  2.13103009 88009
COSMOS 2433 (720)       
1 32275U 07052A   18106.38870756 -.00000019  00000-0  10000-3 0  9998
2 32275  65.6607  55.4339 0004650 289.7065  83.6611  2.13104572 81517
COSMOS 2432 (719)       
1 32276U 07052B   18105.62089652 -.00000020  00000-0  10000-3 0  9994
2 32276  65.6729  55.5356 0013625 330.8987 125.5183  2.13103984 81499
COSMOS 2434 (721)       
1 32393U 07065A   18106.09882113  .00000020  00000-0  00000+0 0  9997
2 32393  64.9258 293.6385 0005760  93.0434 306.1596  2.13102890 80210
COSMOS 2436 (723)       
1 32395U 07065C   18105.62381064  .00000022  00000-0  10000-3 0  9993
2 32395  64.9376 293.7048 0016329   7.2768  77.7001  2.13104287 80135
COSMOS 2456 (730)       
1 36111U 09070A   18106.44050128  .00000063  00000-0  00000+0 0  9996
2 36111  64.1828 173.2112 0005100 309.3885 164.0267  2.13102864 64881
COSMOS 2457 (733)       
1 36112U 09070B   18106.13363541  .00000063  00000-0  00000+0 0  9999
2 36112  64.1649 173.1338 0005788 178.7432 186.4362  2.13101533 64886
COSMOS 2458 (734)       
1 36113U 09070C   18105.78327759  .00000062  00000-0  10000-3 0  9995
2 36113  64.1703 173.1561 0001916 338.2024 166.5591  2.13102104 64872
COSMOS 2459 (731)       
1 36400U 10007A   18106.15229044 -.00000021  00000-0  10000-3 0  9992
2 36400  65.5695  54.5108 0029024 348.9931  62.4327  2.13102232 63232
COSMOS 2461 (735)       
1 36401U 10007B   18106.12715013 -.00000021  00000-0  10000-3 0  9996
2 36401  65.5623  54.4875 0006390  43.7138 259.0127  2.13102243 63227
COSMOS 2460 (732)       
1 36402U 10007C   18106.38799313 -.00000020  00000-0  10000-3 0  9999
2 36402  65.5524  54.4475 0002672 323.4503 220.1518  2.13101645 63236
COSMOS 2464 (736)       
1 37139U 10041C   18105.75424083  .00000020  00000-0  00000+0 0  9998
2 37139  64.5295 293.4871 0025218  16.3064 346.3383  2.13102708 59297
COSMOS 2471 (701K)      
1 37372U 11009A   18105.70360007 -.00000022  00000-0  00000+0 0  9995
2 37372  65.5503  54.4154 0008657 245.7397 275.4562  2.13107600 55498
COSMOS 2474 (742)       
1 37829U 11055A   18106.38419832  .00000063  00000-0  00000+0 0  9993
2 37829  64.5067 173.9058 0009294 250.1312  38.5230  2.13101905 50873
COSMOS 2476 (744)       
1 37867U 11064A   18106.36250506  .00000063  00000-0  00000+0 0  9994
2 37867  64.4870 173.9689 0018933 243.3710  74.6669  2.13101993 50225
COSMOS 2477 (745)       
1 37868U 11064B   18106.06731442  .00000062  00000-0  00000+0 0  9994
2 37868  64.4952 174.0273 0016781 244.9216  25.5932  2.13101753 50171
COSMOS 2475 (743)       
1 37869U 11064C   18105.66592639  .00000061  00000-0  00000+0 0  9992
2 37869  64.5025 174.0344 0021246 268.7484  10.4897  2.13101912 50176
COSMOS 2485 (747)       
1 39155U 13019A   18106.08626311  .00000062  00000-0  00000+0 0  9997
2 39155  64.6558 174.0741 0019255 238.3355 272.6826  2.13101927 38699
COSMOS 2492 (754)       
1 39620U 14012A   18106.06308723 -.00000021  00000-0  10000-3 0  9991
2 39620  65.4430  54.3519 0017028 327.8242 200.1101  2.13103442 31646
COSMOS 2500 (755)       
1 40001U 14032A   18106.15115292 -.00000021  00000-0  00000+0 0  9990
2 40001  65.3829  54.3234 0005535 232.6131 225.2705  2.13102805 29867
COSMOS 2501 (702K)      
1 40315U 14075A   18106.36980494  .00000017  00000-0  00000+0 0  9996
2 40315  64.2529 294.7007 0014213 204.0850 223.8693  2.13098540 26274
COSMOS 2514 (751)       
1 41330U 16008A   18106.40552714 -.00000021  00000-0  00000+0 0  9993
2 41330  65.1852  54.3841 0009154 232.6265 241.1592  2.13103322 17032
COSMOS 2516 (753)       
1 41554U 16032A   18106.43949439  .00000018  00000-0  00000+0 0  9990
2 41554  64.4742 294.5466 0009955 214.2649 176.8965  2.13101655 14641
COSMOS 2522 (752)       
1 42939U 17055A   18105.73455654  .00000020  00000-0  00000-0 0  9991
2 42939  64.7050 294.5188 0004972 250.8676 185.9122  2.13101905  4389
